GLOBALSTAR M067         
1 32263U 07048A   25018.57556992 -.00000064  00000+0  24864-3 0  9996
2 32263  51.9726 113.7059 0001145  70.5814  33.5168 12.40664668790915
GLOBALSTAR M070         
1 32264U 07048B   25018.55465406 -.00000081  00000+0  12813-3 0  9994
2 32264  51.9721 224.3438 0001175  90.5505 295.3878 12.62310841794772
GLOBALSTAR M066         
1 32265U 07048C   25018.53635677 -.00000080  00000+0  12665-3 0  9996
2 32265  51.9672 100.1700 0000992 132.3392 359.1874 12.42169560796782
GLOBALSTAR M068         
1 32266U 07048D   25018.41977892 -.00000095  00000+0  46818-4 0  9996
2 32266  51.9898  38.7942 0001180 155.9738 353.3037 12.62813468798630
GLOBALSTAR M079         
1 37188U 10054A   25018.58916038 -.00000098  00000+0  31010-4 0  9999
2 37188  52.0015 235.1895 0000917  63.5413 315.1323 12.62270121657565
GLOBALSTAR M074         
1 37189U 10054B   25018.78766782 -.00000087  00000+0  91414-4 0  9993
2 37189  51.9991 233.9304 0001203  79.1488   2.0881 12.62262118658268
GLOBALSTAR M076         
1 37190U 10054C   25018.56311284 -.00000076  00000+0  15547-3 0  9994
2 37190  52.0004 234.7707 0001216  63.7620 317.1396 12.62276692657884
GLOBALSTAR M077         
1 37191U 10054D   25018.56164076 -.00000109  00000+0 -29728-4 0  9995
2 37191  52.0044 191.5884 0001098  92.7644 340.2266 12.62270029658254
